{
  "type": "FeatureCollection",
  "features": [
    {
      "type": "Feature",
      "properties": {
        "norad_id": 63772,
        "name": "BIOMASS",
        "group": "resource",
        "lat": 35.44122566066312,
        "lon": 157.57439497185743,
        "alt_km": 665.9065449978234,
        "timestamp": "2025-12-04T05:42:43.035882+00:00",
        "meta_object_name": "BIOMASS",
        "meta_object_id": "2025-090A",
        "meta_epoch": "2025-12-03T11:32:56.497344",
        "meta_mean_motion": 14.67534999,
        "meta_eccentricity": 0.00012209,
        "meta_inclination": 98.0704,
        "meta_ra_of_asc_node": 162.625,
        "meta_arg_of_pericenter": 79.869,
        "meta_mean_anomaly": 280.2652,
        "meta_ephemeris_type": 0,
        "meta_classification_type": "U",
        "meta_norad_cat_id": 63772,
        "meta_element_set_no": 999,
        "meta_rev_at_epoch": 3198,
        "meta_bstar": 0.00037433775,
        "meta_mean_motion_dot": 2.075e-05,
        "meta_mean_motion_ddot": 0,
        "tle_line1": "1 63772U 25090A   25337.48120946  .00002075  00000+0  37434-3 0  9992",
        "tle_line2": "2 63772  98.0704 162.6250 0001220  79.8690 280.2652 14.67534999 31984"
      },
      "geometry": {
        "type": "Point",
        "coordinates": [
          157.57439497185743,
          35.44122566066312
        ]
      }
    },
    {
      "type": "Feature",
      "properties": {
        "norad_id": 64694,
        "name": "GOSAT-GW (IBUKI GW)",
        "group": "resource",
        "lat": -63.69957667622461,
        "lon": 77.2859804841998,
        "alt_km": 677.0269961006325,
        "timestamp": "2025-12-04T05:42:43.035891+00:00",
        "meta_object_name": "GOSAT-GW (IBUKI GW)",
        "meta_object_id": "2025-141A",
        "meta_epoch": "2025-11-30T05:41:32.267328",
        "meta_mean_motion": 14.67567435,
        "meta_eccentricity": 0.00014369,
        "meta_inclination": 98.0401,
        "meta_ra_of_asc_node": 269.9775,
        "meta_arg_of_pericenter": 82.921,
        "meta_mean_anomaly": 277.2158,
        "meta_ephemeris_type": 0,
        "meta_classification_type": "U",
        "meta_norad_cat_id": 64694,
        "meta_element_set_no": 999,
        "meta_rev_at_epoch": 2266,
        "meta_bstar": 0.00019762357,
        "meta_mean_motion_dot": 1.074e-05,
        "meta_mean_motion_ddot": 0,
        "tle_line1": "1 64694U 25141A   25334.23717902  .00001074  00000+0  19762-3 0  9999",
        "tle_line2": "2 64694  98.0401 269.9775 0001436  82.9210 277.2158 14.67567435 22660"
      },
      "geometry": {
        "type": "Point",
        "coordinates": [
          77.2859804841998,
          -63.69957667622461
        ]
      }
    },
    {
      "type": "Feature",
      "properties": {
        "norad_id": 64876,
        "name": "IONOSFERA-M 3",
        "group": "resource",
        "lat": -36.15497895513177,
        "lon": 114.01402928306426,
        "alt_km": 828.1494148443553,
        "timestamp": "2025-12-04T05:42:43.035901+00:00",
        "meta_object_name": "IONOSFERA-M 3",
        "meta_object_id": "2025-155A",
        "meta_epoch": "2025-12-03T23:37:42.312864",
        "meta_mean_motion": 14.21437667,
        "meta_eccentricity": 0.00023864,
        "meta_inclination": 98.577,
        "meta_ra_of_asc_node": 300.099,
        "meta_arg_of_pericenter": 73.6832,
        "meta_mean_anomaly": 286.4608,
        "meta_ephemeris_type": 0,
        "meta_classification_type": "U",
        "meta_norad_cat_id": 64876,
        "meta_element_set_no": 999,
        "meta_rev_at_epoch": 1867,
        "meta_bstar": 9.6573107e-05,
        "meta_mean_motion_dot": 1.68e-06,
        "meta_mean_motion_ddot": 0,
        "tle_line1": "1 64876U 25155A   25337.98451751  .00000168  00000+0  96573-4 0  9997",
        "tle_line2": "2 64876  98.5770 300.0990 0002386  73.6832 286.4608 14.21437667 18675"
      },
      "geometry": {
        "type": "Point",
        "coordinates": [
          114.01402928306426,
          -36.15497895513177
        ]
      }
    },
    {
      "type": "Feature",
      "properties": {
        "norad_id": 64877,
        "name": "IONOSFERA-M 4",
        "group": "resource",
        "lat": 36.55493286253163,
        "lon": -66.15991164339927,
        "alt_km": 816.8434159971785,
        "timestamp": "2025-12-04T05:42:43.035911+00:00",
        "meta_object_name": "IONOSFERA-M 4",
        "meta_object_id": "2025-155B",
        "meta_epoch": "2025-12-04T00:28:12.578592",
        "meta_mean_motion": 14.21438751,
        "meta_eccentricity": 0.00017389,
        "meta_inclination": 98.5769,
        "meta_ra_of_asc_node": 300.0527,
        "meta_arg_of_pericenter": 72.432,
        "meta_mean_anomaly": 287.7048,
        "meta_ephemeris_type": 0,
        "meta_classification_type": "U",
        "meta_norad_cat_id": 64877,
        "meta_element_set_no": 999,
        "meta_rev_at_epoch": 1867,
        "meta_bstar": 9.8707303e-05,
        "meta_mean_motion_dot": 1.73e-06,
        "meta_mean_motion_ddot": 0,
        "tle_line1": "1 64877U 25155B   25338.01959003  .00000173  00000+0  98707-4 0  9993",
        "tle_line2": "2 64877  98.5769 300.0527 0001738  72.4320 287.7048 14.21438751 18676"
      },
      "geometry": {
        "type": "Point",
        "coordinates": [
          -66.15991164339927,
          36.55493286253163
        ]
      }
    },
    {
      "type": "Feature",
      "properties": {
        "norad_id": 64899,
        "name": "MICROCARB",
        "group": "resource",
        "lat": 80.65678808168401,
        "lon": -5.055867159012794,
        "alt_km": 646.3099368225585,
        "timestamp": "2025-12-04T05:42:43.035921+00:00",
        "meta_object_name": "MICROCARB",
        "meta_object_id": "2025-156A",
        "meta_epoch": "2025-12-03T16:16:28.890624",
        "meta_mean_motion": 14.72032665,
        "meta_eccentricity": 0.00165465,
        "meta_inclination": 98.0035,
        "meta_ra_of_asc_node": 53.1686,
        "meta_arg_of_pericenter": 172.8585,
        "meta_mean_anomaly": 187.2861,
        "meta_ephemeris_type": 0,
        "meta_classification_type": "U",
        "meta_norad_cat_id": 64899,
        "meta_element_set_no": 999,
        "meta_rev_at_epoch": 1920,
        "meta_bstar": 0.00019799102,
        "meta_mean_motion_dot": 1.196e-05,
        "meta_mean_motion_ddot": 0,
        "tle_line1": "1 64899U 25156A   25337.67811216  .00001196  00000+0  19799-3 0  9991",
        "tle_line2": "2 64899  98.0035  53.1686 0016546 172.8585 187.2861 14.72032665 19201"
      },
      "geometry": {
        "type": "Point",
        "coordinates": [
          -5.055867159012794,
          80.65678808168401
        ]
      }
    },
    {
      "type": "Feature",
      "properties": {
        "norad_id": 64900,
        "name": "CO3D 3",
        "group": "resource",
        "lat": 80.62999847066366,
        "lon": -72.95434777285689,
        "alt_km": 496.9324354030341,
        "timestamp": "2025-12-04T05:42:43.035931+00:00",
        "meta_object_name": "CO3D 3",
        "meta_object_id": "2025-156B",
        "meta_epoch": "2025-12-02T23:16:40.108224",
        "meta_mean_motion": 15.2021179,
        "meta_eccentricity": 0.00013753,
        "meta_inclination": 97.4352,
        "meta_ra_of_asc_node": 53.4771,
        "meta_arg_of_pericenter": 132.9697,
        "meta_mean_anomaly": 227.1654,
        "meta_ephemeris_type": 0,
        "meta_classification_type": "U",
        "meta_norad_cat_id": 64900,
        "meta_element_set_no": 999,
        "meta_rev_at_epoch": 1972,
        "meta_bstar": 0.00042667501,
        "meta_mean_motion_dot": 9.183e-05,
        "meta_mean_motion_ddot": 0,
        "tle_line1": "1 64900U 25156B   25336.96990866  .00009183  00000+0  42668-3 0  9999",
        "tle_line2": "2 64900  97.4352  53.4771 0001375 132.9697 227.1654 15.20211790 19725"
      },
      "geometry": {
        "type": "Point",
        "coordinates": [
          -72.95434777285689,
          80.62999847066366
        ]
      }
    },
    {
      "type": "Feature",
      "properties": {
        "norad_id": 64901,
        "name": "CO3D 4",
        "group": "resource",
        "lat": 81.1629392375655,
        "lon": -68.13121297202211,
        "alt_km": 498.3950969389116,
        "timestamp": "2025-12-04T05:42:43.035941+00:00",
        "meta_object_name": "CO3D 4",
        "meta_object_id": "2025-156C",
        "meta_epoch": "2025-12-01T18:50:45.474720",
        "meta_mean_motion": 15.20204195,
        "meta_eccentricity": 0.00012108,
        "meta_inclination": 97.4354,
        "meta_ra_of_asc_node": 52.3098,
        "meta_arg_of_pericenter": 238.3057,
        "meta_mean_anomaly": 121.806,
        "meta_ephemeris_type": 0,
        "meta_classification_type": "U",
        "meta_norad_cat_id": 64901,
        "meta_element_set_no": 999,
        "meta_rev_at_epoch": 1954,
        "meta_bstar": -1.4420799e-05,
        "meta_mean_motion_dot": -3.8e-06,
        "meta_mean_motion_ddot": 0,
        "tle_line1": "1 64901U 25156C   25335.78524855 -.00000380  00000+0 -14421-4 0  9999",
        "tle_line2": "2 64901  97.4354  52.3098 0001210 238.3057 121.8060 15.20204195 19549"
      },
      "geometry": {
        "type": "Point",
        "coordinates": [
          -68.13121297202211,
          81.1629392375655
        ]
      }
    }
  ]
}